<?xml version="1.0" encoding="UTF-8"?><gpx creator="Wikiloc - https://www.wikiloc.com" version="1.1" xmlns="http://www.topografix.com/GPX/1/1" xmlns:xsi="http://www.w3.org/2001/XMLSchema-instance" xsi:schemaLocation="http://www.topografix.com/GPX/1/1 http://www.topografix.com/GPX/1/1/gpx.xsd"><metadata><name>Wikiloc - Senda de Los Cazadores </name><author><name>escalonilla1</name><link href="https://www.wikiloc.com/wikiloc/user.do?id=625431"><text>escalonilla1 on Wikiloc</text></link></author><link href="https://www.wikiloc.com/hiking-trails/senda-de-los-cazadores-3638323"><text>Senda de Los Cazadores  on Wikiloc</text></link><time>2012-11-22T19:45:37Z</time></metadata><wpt lat="42.647981" lon="-0.055549"><ele>1318.6</ele><time>2012-11-22T13:15:17Z</time><name>puente de los cazadores</name><cmt></cmt><desc></desc></wpt><wpt lat="42.641409" lon="-0.054207"><ele>1929.6</ele><time>2012-11-22T13:16:34Z</time><name>mirador del calcilarruego</name><cmt></cmt><desc></desc></wpt><wpt lat="42.651023" lon="0.015193"><ele>1814.6</ele><time>2012-11-22T13:18:40Z</time><name>cascada cola de caballo</name><cmt></cmt><desc></desc></wpt><wpt lat="42.638811" lon="0.001878"><ele>1726.3</ele><time>2012-11-22T13:19:11Z</time><name>gradas de soaso</name><cmt></cmt><desc></desc></wpt><wpt lat="42.635014" lon="-0.023781"><ele>1576.2</ele><time>2012-11-22T13:19:45Z</time><name>cascada de la cueva</name><cmt></cmt><desc></desc></wpt><wpt lat="42.635628" lon="-0.028502"><ele>1501.5</ele><time>2012-11-22T13:20:10Z</time><name>cascada del estrecho</name><cmt></cmt><desc></desc></wpt><wpt lat="42.638415" lon="-0.032263"><ele>1396.0</ele><time>2012-11-22T13:20:44Z</time><name>cascada de arripas</name><cmt></cmt><desc></desc></wpt><trk><name>Senda de Los Cazadores  - Wikiloc</name><cmt></cmt><desc></desc><trkseg><trkpt lat="42.649227" lon="-0.057365"><ele>1318.278</ele><time>2012-11-22T14:48:57Z</time></trkpt><trkpt lat="42.649048" lon="-0.057312"><ele>1317.333</ele><time>2012-11-22T14:49:37Z</time></trkpt><trkpt lat="42.649048" lon="-0.057312"><ele>1317.326</ele><time>2012-11-22T14:50:17Z</time></trkpt><trkpt lat="42.648692" lon="-0.056989"><ele>1317.607</ele><time>2012-11-22T14:50:57Z</time></trkpt><trkpt lat="42.648692" lon="-0.056989"><ele>1317.630</ele><time>2012-11-22T14:51:37Z</time></trkpt><trkpt lat="42.648344" lon="-0.056140"><ele>1319.043</ele><time>2012-11-22T14:52:17Z</time></trkpt><trkpt lat="42.648344" lon="-0.056140"><ele>1319.010</ele><time>2012-11-22T14:52:57Z</time></trkpt><trkpt lat="42.648250" lon="-0.055533"><ele>1318.865</ele><time>2012-11-22T14:53:37Z</time></trkpt><trkpt lat="42.648250" lon="-0.055533"><ele>1318.860</ele><time>2012-11-22T14:54:17Z</time></trkpt><trkpt lat="42.647981" lon="-0.055554"><ele>1318.549</ele><time>2012-11-22T14:54:57Z</time></trkpt><trkpt lat="42.647981" lon="-0.055554"><ele>1318.580</ele><time>2012-11-22T14:55:37Z</time></trkpt><trkpt lat="42.647533" lon="-0.055717"><ele>1320.437</ele><time>2012-11-22T14:56:17Z</time></trkpt><trkpt lat="42.647533" lon="-0.055717"><ele>1320.449</ele><time>2012-11-22T14:56:57Z</time></trkpt><trkpt lat="42.646889" lon="-0.055246"><ele>1321.613</ele><time>2012-11-22T14:57:37Z</time></trkpt><trkpt lat="42.646889" lon="-0.055246"><ele>1321.607</ele><time>2012-11-22T14:58:17Z</time></trkpt><trkpt lat="42.646351" lon="-0.055039"><ele>1325.856</ele><time>2012-11-22T14:58:57Z</time></trkpt><trkpt lat="42.646351" lon="-0.055039"><ele>1325.899</ele><time>2012-11-22T14:59:37Z</time></trkpt><trkpt lat="42.645657" lon="-0.055471"><ele>1359.326</ele><time>2012-11-22T15:00:17Z</time></trkpt><trkpt lat="42.645657" lon="-0.055471"><ele>1359.311</ele><time>2012-11-22T15:00:57Z</time></trkpt><trkpt lat="42.645745" lon="-0.055741"><ele>1354.076</ele><time>2012-11-22T15:01:37Z</time></trkpt><trkpt lat="42.645745" lon="-0.055741"><ele>1354.045</ele><time>2012-11-22T15:02:17Z</time></trkpt><trkpt lat="42.645568" lon="-0.055787"><ele>1361.076</ele><time>2012-11-22T15:02:57Z</time></trkpt><trkpt lat="42.645568" lon="-0.055787"><ele>1361.053</ele><time>2012-11-22T15:03:37Z</time></trkpt><trkpt lat="42.645362" lon="-0.055287"><ele>1380.404</ele><time>2012-11-22T15:04:17Z</time></trkpt><trkpt lat="42.645362" lon="-0.055287"><ele>1380.414</ele><time>2012-11-22T15:04:57Z</time></trkpt><trkpt lat="42.645196" lon="-0.054449"><ele>1395.907</ele><time>2012-11-22T15:05:37Z</time></trkpt><trkpt lat="42.645196" lon="-0.054449"><ele>1395.998</ele><time>2012-11-22T15:06:17Z</time></trkpt><trkpt lat="42.644843" lon="-0.054692"><ele>1424.821</ele><time>2012-11-22T15:06:57Z</time></trkpt><trkpt lat="42.644843" lon="-0.054692"><ele>1424.828</ele><time>2012-11-22T15:07:37Z</time></trkpt><trkpt lat="42.644259" lon="-0.054317"><ele>1501.663</ele><time>2012-11-22T15:08:17Z</time></trkpt><trkpt lat="42.644259" lon="-0.054317"><ele>1501.698</ele><time>2012-11-22T15:08:57Z</time></trkpt><trkpt lat="42.644123" lon="-0.053959"><ele>1509.717</ele><time>2012-11-22T15:09:37Z</time></trkpt><trkpt lat="42.644123" lon="-0.053959"><ele>1509.718</ele><time>2012-11-22T15:10:17Z</time></trkpt><trkpt lat="42.644202" lon="-0.052965"><ele>1474.496</ele><time>2012-11-22T15:10:57Z</time></trkpt><trkpt lat="42.644202" lon="-0.052965"><ele>1474.431</ele><time>2012-11-22T15:11:37Z</time></trkpt><trkpt lat="42.643737" lon="-0.051658"><ele>1512.424</ele><time>2012-11-22T15:12:17Z</time></trkpt><trkpt lat="42.643737" lon="-0.051658"><ele>1512.407</ele><time>2012-11-22T15:12:57Z</time></trkpt><trkpt lat="42.643481" lon="-0.051691"><ele>1537.122</ele><time>2012-11-22T15:13:37Z</time></trkpt><trkpt lat="42.643481" lon="-0.051691"><ele>1537.125</ele><time>2012-11-22T15:14:17Z</time></trkpt><trkpt lat="42.643475" lon="-0.051949"><ele>1541.392</ele><time>2012-11-22T15:14:57Z</time></trkpt><trkpt lat="42.643475" lon="-0.051949"><ele>1541.377</ele><time>2012-11-22T15:15:37Z</time></trkpt><trkpt lat="42.643119" lon="-0.052057"><ele>1575.352</ele><time>2012-11-22T15:16:17Z</time></trkpt><trkpt lat="42.643119" lon="-0.052057"><ele>1575.341</ele><time>2012-11-22T15:16:57Z</time></trkpt><trkpt lat="42.642832" lon="-0.052550"><ele>1626.712</ele><time>2012-11-22T15:17:37Z</time></trkpt><trkpt lat="42.642832" lon="-0.052550"><ele>1626.798</ele><time>2012-11-22T15:18:17Z</time></trkpt><trkpt lat="42.642954" lon="-0.053080"><ele>1626.915</ele><time>2012-11-22T15:18:57Z</time></trkpt><trkpt lat="42.642954" lon="-0.053080"><ele>1626.926</ele><time>2012-11-22T15:19:37Z</time></trkpt><trkpt lat="42.642961" lon="-0.053444"><ele>1631.807</ele><time>2012-11-22T15:20:17Z</time></trkpt><trkpt lat="42.642961" lon="-0.053444"><ele>1631.872</ele><time>2012-11-22T15:20:57Z</time></trkpt><trkpt lat="42.642696" lon="-0.053727"><ele>1659.235</ele><time>2012-11-22T15:21:37Z</time></trkpt><trkpt lat="42.642696" lon="-0.053727"><ele>1659.232</ele><time>2012-11-22T15:22:17Z</time></trkpt><trkpt lat="42.642659" lon="-0.053297"><ele>1665.137</ele><time>2012-11-22T15:22:57Z</time></trkpt><trkpt lat="42.642659" lon="-0.053297"><ele>1665.122</ele><time>2012-11-22T15:23:37Z</time></trkpt><trkpt lat="42.642334" lon="-0.053295"><ele>1707.081</ele><time>2012-11-22T15:24:17Z</time></trkpt><trkpt lat="42.642334" lon="-0.053295"><ele>1707.012</ele><time>2012-11-22T15:24:57Z</time></trkpt><trkpt lat="42.642028" lon="-0.053363"><ele>1791.112</ele><time>2012-11-22T15:25:37Z</time></trkpt><trkpt lat="42.642028" lon="-0.053363"><ele>1791.132</ele><time>2012-11-22T15:26:17Z</time></trkpt><trkpt lat="42.642059" lon="-0.054009"><ele>1768.605</ele><time>2012-11-22T15:26:57Z</time></trkpt><trkpt lat="42.642059" lon="-0.054009"><ele>1768.607</ele><time>2012-11-22T15:27:37Z</time></trkpt><trkpt lat="42.641800" lon="-0.054536"><ele>1784.084</ele><time>2012-11-22T15:28:17Z</time></trkpt><trkpt lat="42.641800" lon="-0.054536"><ele>1784.047</ele><time>2012-11-22T15:28:57Z</time></trkpt><trkpt lat="42.641679" lon="-0.055303"><ele>1779.044</ele><time>2012-11-22T15:29:37Z</time></trkpt><trkpt lat="42.641679" lon="-0.055303"><ele>1779.089</ele><time>2012-11-22T15:30:17Z</time></trkpt><trkpt lat="42.641583" lon="-0.055540"><ele>1785.014</ele><time>2012-11-22T15:30:57Z</time></trkpt><trkpt lat="42.641583" lon="-0.055540"><ele>1785.043</ele><time>2012-11-22T15:31:37Z</time></trkpt><trkpt lat="42.641493" lon="-0.056092"><ele>1806.524</ele><time>2012-11-22T15:32:17Z</time></trkpt><trkpt lat="42.641493" lon="-0.056092"><ele>1806.587</ele><time>2012-11-22T15:32:57Z</time></trkpt><trkpt lat="42.641370" lon="-0.056392"><ele>1811.542</ele><time>2012-11-22T15:33:37Z</time></trkpt><trkpt lat="42.641370" lon="-0.056392"><ele>1811.526</ele><time>2012-11-22T15:34:17Z</time></trkpt><trkpt lat="42.641263" lon="-0.056376"><ele>1826.507</ele><time>2012-11-22T15:34:57Z</time></trkpt><trkpt lat="42.641263" lon="-0.056376"><ele>1826.561</ele><time>2012-11-22T15:35:37Z</time></trkpt><trkpt lat="42.641233" lon="-0.055905"><ele>1834.114</ele><time>2012-11-22T15:36:17Z</time></trkpt><trkpt lat="42.641233" lon="-0.055905"><ele>1834.181</ele><time>2012-11-22T15:36:57Z</time></trkpt><trkpt lat="42.641053" lon="-0.056155"><ele>1856.436</ele><time>2012-11-22T15:37:37Z</time></trkpt><trkpt lat="42.641053" lon="-0.056155"><ele>1856.471</ele><time>2012-11-22T15:38:17Z</time></trkpt><trkpt lat="42.640943" lon="-0.056158"><ele>1869.390</ele><time>2012-11-22T15:38:57Z</time></trkpt><trkpt lat="42.640943" lon="-0.056158"><ele>1869.381</ele><time>2012-11-22T15:39:37Z</time></trkpt><trkpt lat="42.640894" lon="-0.056500"><ele>1865.546</ele><time>2012-11-22T15:40:17Z</time></trkpt><trkpt lat="42.640894" lon="-0.056500"><ele>1865.588</ele><time>2012-11-22T15:40:57Z</time></trkpt><trkpt lat="42.640600" lon="-0.056583"><ele>1888.316</ele><time>2012-11-22T15:41:37Z</time></trkpt><trkpt lat="42.640600" lon="-0.056583"><ele>1888.307</ele><time>2012-11-22T15:42:17Z</time></trkpt><trkpt lat="42.640684" lon="-0.055966"><ele>1906.447</ele><time>2012-11-22T15:42:57Z</time></trkpt><trkpt lat="42.640684" lon="-0.055966"><ele>1906.410</ele><time>2012-11-22T15:43:37Z</time></trkpt><trkpt lat="42.640645" lon="-0.055692"><ele>1925.957</ele><time>2012-11-22T15:44:17Z</time></trkpt><trkpt lat="42.640645" lon="-0.055692"><ele>1925.932</ele><time>2012-11-22T15:44:57Z</time></trkpt><trkpt lat="42.640898" lon="-0.055172"><ele>1926.197</ele><time>2012-11-22T15:45:37Z</time></trkpt><trkpt lat="42.640898" lon="-0.055172"><ele>1926.186</ele><time>2012-11-22T15:46:17Z</time></trkpt><trkpt lat="42.640821" lon="-0.054969"><ele>1960.217</ele><time>2012-11-22T15:46:57Z</time></trkpt><trkpt lat="42.640821" lon="-0.054969"><ele>1960.289</ele><time>2012-11-22T15:47:37Z</time></trkpt><trkpt lat="42.641198" lon="-0.054596"><ele>1932.006</ele><time>2012-11-22T15:48:17Z</time></trkpt><trkpt lat="42.641198" lon="-0.054596"><ele>1932.026</ele><time>2012-11-22T15:48:57Z</time></trkpt><trkpt lat="42.641171" lon="-0.054427"><ele>1957.307</ele><time>2012-11-22T15:49:37Z</time></trkpt><trkpt lat="42.641171" lon="-0.054427"><ele>1957.351</ele><time>2012-11-22T15:50:17Z</time></trkpt><trkpt lat="42.641416" lon="-0.054202"><ele>1928.154</ele><time>2012-11-22T15:50:57Z</time></trkpt><trkpt lat="42.641416" lon="-0.054202"><ele>1928.111</ele><time>2012-11-22T15:51:37Z</time></trkpt><trkpt lat="42.640652" lon="-0.054266"><ele>1975.916</ele><time>2012-11-22T15:52:17Z</time></trkpt><trkpt lat="42.640652" lon="-0.054266"><ele>1975.911</ele><time>2012-11-22T15:52:57Z</time></trkpt><trkpt lat="42.640238" lon="-0.053820"><ele>1971.120</ele><time>2012-11-22T15:53:37Z</time></trkpt><trkpt lat="42.640238" lon="-0.053820"><ele>1971.121</ele><time>2012-11-22T15:54:17Z</time></trkpt><trkpt lat="42.639956" lon="-0.053322"><ele>1980.343</ele><time>2012-11-22T15:54:57Z</time></trkpt><trkpt lat="42.639956" lon="-0.053322"><ele>1980.364</ele><time>2012-11-22T15:55:37Z</time></trkpt><trkpt lat="42.639896" lon="-0.052827"><ele>1977.110</ele><time>2012-11-22T15:56:17Z</time></trkpt><trkpt lat="42.639896" lon="-0.052827"><ele>1977.107</ele><time>2012-11-22T15:56:57Z</time></trkpt><trkpt lat="42.639618" lon="-0.052470"><ele>1977.767</ele><time>2012-11-22T15:57:37Z</time></trkpt><trkpt lat="42.639618" lon="-0.052470"><ele>1977.740</ele><time>2012-11-22T15:58:17Z</time></trkpt><trkpt lat="42.639231" lon="-0.051317"><ele>1993.597</ele><time>2012-11-22T15:58:57Z</time></trkpt><trkpt lat="42.639231" lon="-0.051317"><ele>1993.542</ele><time>2012-11-22T15:59:37Z</time></trkpt><trkpt lat="42.639932" lon="-0.048955"><ele>1985.247</ele><time>2012-11-22T16:00:17Z</time></trkpt><trkpt lat="42.639932" lon="-0.048955"><ele>1985.286</ele><time>2012-11-22T16:00:57Z</time></trkpt><trkpt lat="42.639932" lon="-0.048485"><ele>1929.257</ele><time>2012-11-22T16:01:37Z</time></trkpt><trkpt lat="42.639932" lon="-0.048485"><ele>1929.247</ele><time>2012-11-22T16:02:17Z</time></trkpt><trkpt lat="42.639710" lon="-0.047955"><ele>1918.729</ele><time>2012-11-22T16:02:57Z</time></trkpt><trkpt lat="42.639710" lon="-0.047955"><ele>1918.721</ele><time>2012-11-22T16:03:37Z</time></trkpt><trkpt lat="42.639570" lon="-0.047227"><ele>1911.507</ele><time>2012-11-22T16:04:17Z</time></trkpt><trkpt lat="42.639570" lon="-0.047227"><ele>1911.537</ele><time>2012-11-22T16:04:57Z</time></trkpt><trkpt lat="42.639313" lon="-0.046713"><ele>1937.150</ele><time>2012-11-22T16:05:37Z</time></trkpt><trkpt lat="42.639313" lon="-0.046713"><ele>1937.157</ele><time>2012-11-22T16:06:17Z</time></trkpt><trkpt lat="42.639313" lon="-0.046387"><ele>1958.962</ele><time>2012-11-22T16:06:57Z</time></trkpt><trkpt lat="42.639313" lon="-0.046387"><ele>1958.997</ele><time>2012-11-22T16:07:37Z</time></trkpt><trkpt lat="42.639448" lon="-0.046175"><ele>1953.626</ele><time>2012-11-22T16:08:17Z</time></trkpt><trkpt lat="42.639448" lon="-0.046175"><ele>1953.697</ele><time>2012-11-22T16:08:57Z</time></trkpt><trkpt lat="42.639541" lon="-0.045858"><ele>1877.711</ele><time>2012-11-22T16:09:37Z</time></trkpt><trkpt lat="42.639541" lon="-0.045858"><ele>1877.721</ele><time>2012-11-22T16:10:17Z</time></trkpt><trkpt lat="42.639138" lon="-0.045596"><ele>1920.103</ele><time>2012-11-22T16:10:57Z</time></trkpt><trkpt lat="42.639138" lon="-0.045596"><ele>1920.107</ele><time>2012-11-22T16:11:37Z</time></trkpt><trkpt lat="42.638710" lon="-0.045423"><ele>1932.084</ele><time>2012-11-22T16:12:17Z</time></trkpt><trkpt lat="42.638710" lon="-0.045423"><ele>1932.057</ele><time>2012-11-22T16:12:57Z</time></trkpt><trkpt lat="42.638542" lon="-0.045172"><ele>1934.434</ele><time>2012-11-22T16:13:37Z</time></trkpt><trkpt lat="42.638542" lon="-0.045172"><ele>1934.489</ele><time>2012-11-22T16:14:17Z</time></trkpt><trkpt lat="42.638498" lon="-0.044655"><ele>1933.684</ele><time>2012-11-22T16:14:57Z</time></trkpt><trkpt lat="42.638498" lon="-0.044655"><ele>1933.643</ele><time>2012-11-22T16:15:37Z</time></trkpt><trkpt lat="42.638097" lon="-0.044262"><ele>1944.394</ele><time>2012-11-22T16:16:17Z</time></trkpt><trkpt lat="42.638097" lon="-0.044262"><ele>1944.343</ele><time>2012-11-22T16:16:57Z</time></trkpt><trkpt lat="42.637088" lon="-0.043884"><ele>1941.564</ele><time>2012-11-22T16:17:37Z</time></trkpt><trkpt lat="42.637088" lon="-0.043884"><ele>1941.510</ele><time>2012-11-22T16:18:17Z</time></trkpt><trkpt lat="42.636775" lon="-0.043525"><ele>1934.107</ele><time>2012-11-22T16:18:57Z</time></trkpt><trkpt lat="42.636775" lon="-0.043525"><ele>1934.147</ele><time>2012-11-22T16:19:37Z</time></trkpt><trkpt lat="42.636483" lon="-0.042901"><ele>1928.840</ele><time>2012-11-22T16:20:17Z</time></trkpt><trkpt lat="42.636483" lon="-0.042901"><ele>1928.817</ele><time>2012-11-22T16:20:57Z</time></trkpt><trkpt lat="42.636347" lon="-0.042133"><ele>1927.962</ele><time>2012-11-22T16:21:37Z</time></trkpt><trkpt lat="42.636347" lon="-0.042133"><ele>1927.927</ele><time>2012-11-22T16:22:17Z</time></trkpt><trkpt lat="42.636311" lon="-0.041524"><ele>1923.276</ele><time>2012-11-22T16:22:57Z</time></trkpt><trkpt lat="42.636311" lon="-0.041524"><ele>1923.297</ele><time>2012-11-22T16:23:37Z</time></trkpt><trkpt lat="42.636187" lon="-0.040959"><ele>1917.414</ele><time>2012-11-22T16:24:17Z</time></trkpt><trkpt lat="42.636187" lon="-0.040959"><ele>1917.454</ele><time>2012-11-22T16:24:57Z</time></trkpt><trkpt lat="42.636052" lon="-0.040622"><ele>1923.009</ele><time>2012-11-22T16:25:37Z</time></trkpt><trkpt lat="42.636052" lon="-0.040622"><ele>1923.007</ele><time>2012-11-22T16:26:17Z</time></trkpt><trkpt lat="42.636635" lon="-0.040036"><ele>1920.484</ele><time>2012-11-22T16:26:57Z</time></trkpt><trkpt lat="42.636635" lon="-0.040036"><ele>1920.427</ele><time>2012-11-22T16:27:37Z</time></trkpt><trkpt lat="42.636824" lon="-0.039504"><ele>1889.464</ele><time>2012-11-22T16:28:17Z</time></trkpt><trkpt lat="42.636824" lon="-0.039504"><ele>1889.459</ele><time>2012-11-22T16:28:57Z</time></trkpt><trkpt lat="42.636480" lon="-0.039172"><ele>1903.064</ele><time>2012-11-22T16:29:37Z</time></trkpt><trkpt lat="42.636480" lon="-0.039172"><ele>1903.063</ele><time>2012-11-22T16:30:17Z</time></trkpt><trkpt lat="42.636176" lon="-0.038684"><ele>1911.424</ele><time>2012-11-22T16:30:57Z</time></trkpt><trkpt lat="42.636176" lon="-0.038684"><ele>1911.465</ele><time>2012-11-22T16:31:37Z</time></trkpt><trkpt lat="42.635876" lon="-0.038409"><ele>1909.968</ele><time>2012-11-22T16:32:17Z</time></trkpt><trkpt lat="42.635876" lon="-0.038409"><ele>1909.914</ele><time>2012-11-22T16:32:57Z</time></trkpt><trkpt lat="42.635158" lon="-0.038069"><ele>1889.607</ele><time>2012-11-22T16:33:37Z</time></trkpt><trkpt lat="42.635158" lon="-0.038069"><ele>1889.669</ele><time>2012-11-22T16:34:17Z</time></trkpt><trkpt lat="42.634902" lon="-0.038004"><ele>1905.062</ele><time>2012-11-22T16:34:57Z</time></trkpt><trkpt lat="42.634902" lon="-0.038004"><ele>1905.099</ele><time>2012-11-22T16:35:37Z</time></trkpt><trkpt lat="42.634856" lon="-0.037857"><ele>1905.934</ele><time>2012-11-22T16:36:17Z</time></trkpt><trkpt lat="42.634856" lon="-0.037857"><ele>1905.959</ele><time>2012-11-22T16:36:57Z</time></trkpt><trkpt lat="42.635023" lon="-0.037521"><ele>1901.048</ele><time>2012-11-22T16:37:37Z</time></trkpt><trkpt lat="42.635023" lon="-0.037521"><ele>1901.069</ele><time>2012-11-22T16:38:17Z</time></trkpt><trkpt lat="42.635041" lon="-0.037246"><ele>1896.329</ele><time>2012-11-22T16:38:57Z</time></trkpt><trkpt lat="42.635041" lon="-0.037246"><ele>1896.300</ele><time>2012-11-22T16:39:37Z</time></trkpt><trkpt lat="42.634740" lon="-0.036881"><ele>1896.020</ele><time>2012-11-22T16:40:17Z</time></trkpt><trkpt lat="42.634740" lon="-0.036881"><ele>1896.007</ele><time>2012-11-22T16:40:57Z</time></trkpt><trkpt lat="42.634604" lon="-0.036331"><ele>1895.285</ele><time>2012-11-22T16:41:37Z</time></trkpt><trkpt lat="42.634604" lon="-0.036331"><ele>1895.218</ele><time>2012-11-22T16:42:17Z</time></trkpt><trkpt lat="42.634376" lon="-0.035811"><ele>1877.365</ele><time>2012-11-22T16:42:57Z</time></trkpt><trkpt lat="42.634376" lon="-0.035811"><ele>1877.340</ele><time>2012-11-22T16:43:37Z</time></trkpt><trkpt lat="42.634007" lon="-0.035443"><ele>1896.075</ele><time>2012-11-22T16:44:17Z</time></trkpt><trkpt lat="42.634007" lon="-0.035443"><ele>1896.034</ele><time>2012-11-22T16:44:57Z</time></trkpt><trkpt lat="42.634200" lon="-0.034822"><ele>1875.965</ele><time>2012-11-22T16:45:37Z</time></trkpt><trkpt lat="42.634200" lon="-0.034822"><ele>1875.931</ele><time>2012-11-22T16:46:17Z</time></trkpt><trkpt lat="42.633818" lon="-0.034557"><ele>1885.761</ele><time>2012-11-22T16:46:57Z</time></trkpt><trkpt lat="42.633818" lon="-0.034557"><ele>1885.707</ele><time>2012-11-22T16:47:37Z</time></trkpt><trkpt lat="42.633755" lon="-0.034150"><ele>1892.607</ele><time>2012-11-22T16:48:17Z</time></trkpt><trkpt lat="42.633755" lon="-0.034150"><ele>1892.666</ele><time>2012-11-22T16:48:57Z</time></trkpt><trkpt lat="42.633948" lon="-0.033688"><ele>1882.349</ele><time>2012-11-22T16:49:37Z</time></trkpt><trkpt lat="42.633948" lon="-0.033688"><ele>1882.316</ele><time>2012-11-22T16:50:17Z</time></trkpt><trkpt lat="42.633987" lon="-0.033070"><ele>1864.131</ele><time>2012-11-22T16:50:57Z</time></trkpt><trkpt lat="42.633987" lon="-0.033070"><ele>1864.186</ele><time>2012-11-22T16:51:37Z</time></trkpt><trkpt lat="42.633952" lon="-0.032712"><ele>1862.255</ele><time>2012-11-22T16:52:17Z</time></trkpt><trkpt lat="42.633952" lon="-0.032712"><ele>1862.246</ele><time>2012-11-22T16:52:57Z</time></trkpt><trkpt lat="42.633085" lon="-0.031906"><ele>1849.767</ele><time>2012-11-22T16:53:37Z</time></trkpt><trkpt lat="42.633085" lon="-0.031906"><ele>1849.781</ele><time>2012-11-22T16:54:17Z</time></trkpt><trkpt lat="42.632472" lon="-0.031655"><ele>1851.319</ele><time>2012-11-22T16:54:57Z</time></trkpt><trkpt lat="42.632472" lon="-0.031655"><ele>1851.307</ele><time>2012-11-22T16:55:37Z</time></trkpt><trkpt lat="42.632231" lon="-0.031382"><ele>1859.079</ele><time>2012-11-22T16:56:17Z</time></trkpt><trkpt lat="42.632231" lon="-0.031382"><ele>1859.072</ele><time>2012-11-22T16:56:57Z</time></trkpt><trkpt lat="42.632135" lon="-0.030880"><ele>1877.169</ele><time>2012-11-22T16:57:37Z</time></trkpt><trkpt lat="42.632135" lon="-0.030880"><ele>1877.154</ele><time>2012-11-22T16:58:17Z</time></trkpt><trkpt lat="42.632479" lon="-0.030588"><ele>1872.659</ele><time>2012-11-22T16:58:57Z</time></trkpt><trkpt lat="42.632479" lon="-0.030588"><ele>1872.658</ele><time>2012-11-22T16:59:37Z</time></trkpt><trkpt lat="42.632656" lon="-0.029952"><ele>1866.399</ele><time>2012-11-22T17:00:17Z</time></trkpt><trkpt lat="42.632656" lon="-0.029952"><ele>1866.319</ele><time>2012-11-22T17:00:57Z</time></trkpt><trkpt lat="42.632287" lon="-0.029357"><ele>1871.209</ele><time>2012-11-22T17:01:37Z</time></trkpt><trkpt lat="42.632287" lon="-0.029357"><ele>1871.219</ele><time>2012-11-22T17:02:17Z</time></trkpt><trkpt lat="42.631888" lon="-0.029118"><ele>1879.407</ele><time>2012-11-22T17:02:57Z</time></trkpt><trkpt lat="42.631888" lon="-0.029118"><ele>1879.494</ele><time>2012-11-22T17:03:37Z</time></trkpt><trkpt lat="42.631943" lon="-0.028188"><ele>1880.667</ele><time>2012-11-22T17:04:17Z</time></trkpt><trkpt lat="42.631943" lon="-0.028188"><ele>1880.614</ele><time>2012-11-22T17:04:57Z</time></trkpt><trkpt lat="42.632103" lon="-0.027223"><ele>1886.469</ele><time>2012-11-22T17:05:37Z</time></trkpt><trkpt lat="42.632103" lon="-0.027223"><ele>1886.424</ele><time>2012-11-22T17:06:17Z</time></trkpt><trkpt lat="42.632058" lon="-0.025792"><ele>1903.843</ele><time>2012-11-22T17:06:57Z</time></trkpt><trkpt lat="42.632058" lon="-0.025792"><ele>1903.864</ele><time>2012-11-22T17:07:37Z</time></trkpt><trkpt lat="42.631932" lon="-0.024410"><ele>1905.872</ele><time>2012-11-22T17:08:17Z</time></trkpt><trkpt lat="42.631932" lon="-0.024410"><ele>1905.813</ele><time>2012-11-22T17:08:57Z</time></trkpt><trkpt lat="42.632271" lon="-0.022354"><ele>1905.514</ele><time>2012-11-22T17:09:37Z</time></trkpt><trkpt lat="42.632271" lon="-0.022354"><ele>1905.507</ele><time>2012-11-22T17:10:17Z</time></trkpt><trkpt lat="42.632065" lon="-0.019487"><ele>1918.750</ele><time>2012-11-22T17:10:57Z</time></trkpt><trkpt lat="42.632065" lon="-0.019487"><ele>1918.723</ele><time>2012-11-22T17:11:37Z</time></trkpt><trkpt lat="42.632103" lon="-0.018434"><ele>1925.990</ele><time>2012-11-22T17:12:17Z</time></trkpt><trkpt lat="42.632103" lon="-0.018434"><ele>1925.985</ele><time>2012-11-22T17:12:57Z</time></trkpt><trkpt lat="42.631887" lon="-0.015449"><ele>1942.860</ele><time>2012-11-22T17:13:37Z</time></trkpt><trkpt lat="42.631887" lon="-0.015449"><ele>1942.819</ele><time>2012-11-22T17:14:17Z</time></trkpt><trkpt lat="42.631841" lon="-0.013122"><ele>1937.060</ele><time>2012-11-22T17:14:57Z</time></trkpt><trkpt lat="42.631841" lon="-0.013122"><ele>1937.045</ele><time>2012-11-22T17:15:37Z</time></trkpt><trkpt lat="42.631633" lon="-0.011553"><ele>1941.647</ele><time>2012-11-22T17:16:17Z</time></trkpt><trkpt lat="42.631633" lon="-0.011553"><ele>1941.611</ele><time>2012-11-22T17:16:57Z</time></trkpt><trkpt lat="42.632213" lon="-0.007295"><ele>1937.907</ele><time>2012-11-22T17:17:37Z</time></trkpt><trkpt lat="42.632213" lon="-0.007295"><ele>1937.917</ele><time>2012-11-22T17:18:17Z</time></trkpt><trkpt lat="42.633526" lon="-0.004868"><ele>1925.150</ele><time>2012-11-22T17:18:57Z</time></trkpt><trkpt lat="42.633526" lon="-0.004868"><ele>1925.117</ele><time>2012-11-22T17:19:37Z</time></trkpt><trkpt lat="42.633691" lon="-0.003755"><ele>1916.582</ele><time>2012-11-22T17:20:17Z</time></trkpt><trkpt lat="42.633691" lon="-0.003755"><ele>1916.537</ele><time>2012-11-22T17:20:57Z</time></trkpt><trkpt lat="42.634970" lon="-0.001008"><ele>1900.636</ele><time>2012-11-22T17:21:37Z</time></trkpt><trkpt lat="42.634970" lon="-0.001008"><ele>1900.637</ele><time>2012-11-22T17:22:17Z</time></trkpt><trkpt lat="42.636404" lon="0.001363"><ele>1864.581</ele><time>2012-11-22T17:22:57Z</time></trkpt><trkpt lat="42.636404" lon="0.001363"><ele>1864.561</ele><time>2012-11-22T17:23:37Z</time></trkpt><trkpt lat="42.640168" lon="0.007033"><ele>1817.817</ele><time>2012-11-22T17:24:17Z</time></trkpt><trkpt lat="42.640168" lon="0.007033"><ele>1817.807</ele><time>2012-11-22T17:24:57Z</time></trkpt><trkpt lat="42.640894" lon="0.008557"><ele>1812.361</ele><time>2012-11-22T17:25:37Z</time></trkpt><trkpt lat="42.640894" lon="0.008557"><ele>1812.384</ele><time>2012-11-22T17:26:17Z</time></trkpt><trkpt lat="42.641953" lon="0.010577"><ele>1821.331</ele><time>2012-11-22T17:26:57Z</time></trkpt><trkpt lat="42.641953" lon="0.010577"><ele>1821.356</ele><time>2012-11-22T17:27:37Z</time></trkpt><trkpt lat="42.642313" lon="0.011330"><ele>1827.611</ele><time>2012-11-22T17:28:17Z</time></trkpt><trkpt lat="42.642313" lon="0.011330"><ele>1827.620</ele><time>2012-11-22T17:28:57Z</time></trkpt><trkpt lat="42.642520" lon="0.011987"><ele>1831.391</ele><time>2012-11-22T17:29:37Z</time></trkpt><trkpt lat="42.642520" lon="0.011987"><ele>1831.355</ele><time>2012-11-22T17:30:17Z</time></trkpt><trkpt lat="42.645061" lon="0.014460"><ele>1799.507</ele><time>2012-11-22T17:30:57Z</time></trkpt><trkpt lat="42.645061" lon="0.014460"><ele>1799.517</ele><time>2012-11-22T17:31:37Z</time></trkpt><trkpt lat="42.645741" lon="0.014901"><ele>1788.407</ele><time>2012-11-22T17:32:17Z</time></trkpt><trkpt lat="42.645741" lon="0.014901"><ele>1788.468</ele><time>2012-11-22T17:32:57Z</time></trkpt><trkpt lat="42.646668" lon="0.015374"><ele>1774.781</ele><time>2012-11-22T17:33:37Z</time></trkpt><trkpt lat="42.646668" lon="0.015374"><ele>1774.748</ele><time>2012-11-22T17:34:17Z</time></trkpt><trkpt lat="42.647319" lon="0.015282"><ele>1760.753</ele><time>2012-11-22T17:34:57Z</time></trkpt><trkpt lat="42.647319" lon="0.015282"><ele>1760.748</ele><time>2012-11-22T17:35:37Z</time></trkpt><trkpt lat="42.648281" lon="0.015665"><ele>1760.937</ele><time>2012-11-22T17:36:17Z</time></trkpt><trkpt lat="42.648281" lon="0.015665"><ele>1760.948</ele><time>2012-11-22T17:36:57Z</time></trkpt><trkpt lat="42.648484" lon="0.016109"><ele>1767.053</ele><time>2012-11-22T17:37:37Z</time></trkpt><trkpt lat="42.648484" lon="0.016109"><ele>1767.004</ele><time>2012-11-22T17:38:17Z</time></trkpt><trkpt lat="42.649430" lon="0.016109"><ele>1768.914</ele><time>2012-11-22T17:38:57Z</time></trkpt><trkpt lat="42.649430" lon="0.016109"><ele>1768.907</ele><time>2012-11-22T17:39:37Z</time></trkpt><trkpt lat="42.649956" lon="0.015578"><ele>1759.538</ele><time>2012-11-22T17:40:17Z</time></trkpt><trkpt lat="42.649956" lon="0.015578"><ele>1759.531</ele><time>2012-11-22T17:40:57Z</time></trkpt><trkpt lat="42.649668" lon="0.015213"><ele>1759.068</ele><time>2012-11-22T17:41:37Z</time></trkpt><trkpt lat="42.649668" lon="0.015213"><ele>1759.093</ele><time>2012-11-22T17:42:17Z</time></trkpt><trkpt lat="42.649048" lon="0.015299"><ele>1754.888</ele><time>2012-11-22T17:42:57Z</time></trkpt><trkpt lat="42.649048" lon="0.015299"><ele>1754.887</ele><time>2012-11-22T17:43:37Z</time></trkpt><trkpt lat="42.648383" lon="0.014261"><ele>1753.188</ele><time>2012-11-22T17:44:17Z</time></trkpt><trkpt lat="42.648383" lon="0.014261"><ele>1753.178</ele><time>2012-11-22T17:44:57Z</time></trkpt><trkpt lat="42.647484" lon="0.012178"><ele>1748.033</ele><time>2012-11-22T17:45:37Z</time></trkpt><trkpt lat="42.647484" lon="0.012178"><ele>1748.026</ele><time>2012-11-22T17:46:17Z</time></trkpt><trkpt lat="42.647188" lon="0.011891"><ele>1747.007</ele><time>2012-11-22T17:46:57Z</time></trkpt><trkpt lat="42.647188" lon="0.011891"><ele>1747.020</ele><time>2012-11-22T17:47:37Z</time></trkpt><trkpt lat="42.647005" lon="0.011584"><ele>1747.053</ele><time>2012-11-22T17:48:17Z</time></trkpt><trkpt lat="42.647005" lon="0.011584"><ele>1747.030</ele><time>2012-11-22T17:48:57Z</time></trkpt><trkpt lat="42.645468" lon="0.010001"><ele>1745.775</ele><time>2012-11-22T17:49:37Z</time></trkpt><trkpt lat="42.645468" lon="0.010001"><ele>1745.770</ele><time>2012-11-22T17:50:17Z</time></trkpt><trkpt lat="42.645155" lon="0.009915"><ele>1744.999</ele><time>2012-11-22T17:50:57Z</time></trkpt><trkpt lat="42.645155" lon="0.009915"><ele>1744.940</ele><time>2012-11-22T17:51:37Z</time></trkpt><trkpt lat="42.643816" lon="0.008495"><ele>1744.419</ele><time>2012-11-22T17:52:17Z</time></trkpt><trkpt lat="42.643816" lon="0.008495"><ele>1744.409</ele><time>2012-11-22T17:52:57Z</time></trkpt><trkpt lat="42.643321" lon="0.008128"><ele>1745.619</ele><time>2012-11-22T17:53:37Z</time></trkpt><trkpt lat="42.643321" lon="0.008128"><ele>1745.607</ele><time>2012-11-22T17:54:17Z</time></trkpt><trkpt lat="42.642202" lon="0.006809"><ele>1743.434</ele><time>2012-11-22T17:54:57Z</time></trkpt><trkpt lat="42.642202" lon="0.006809"><ele>1743.487</ele><time>2012-11-22T17:55:37Z</time></trkpt><trkpt lat="42.641792" lon="0.006379"><ele>1739.954</ele><time>2012-11-22T17:56:17Z</time></trkpt><trkpt lat="42.641792" lon="0.006379"><ele>1739.949</ele><time>2012-11-22T17:56:57Z</time></trkpt><trkpt lat="42.640797" lon="0.004432"><ele>1741.634</ele><time>2012-11-22T17:57:37Z</time></trkpt><trkpt lat="42.640797" lon="0.004432"><ele>1741.613</ele><time>2012-11-22T17:58:17Z</time></trkpt><trkpt lat="42.640215" lon="0.003795"><ele>1739.754</ele><time>2012-11-22T17:58:57Z</time></trkpt><trkpt lat="42.640215" lon="0.003795"><ele>1739.798</ele><time>2012-11-22T17:59:37Z</time></trkpt><trkpt lat="42.639806" lon="0.003111"><ele>1738.115</ele><time>2012-11-22T18:00:17Z</time></trkpt><trkpt lat="42.639806" lon="0.003111"><ele>1738.126</ele><time>2012-11-22T18:00:57Z</time></trkpt><trkpt lat="42.639058" lon="0.001585"><ele>1734.807</ele><time>2012-11-22T18:01:37Z</time></trkpt><trkpt lat="42.639058" lon="0.001585"><ele>1734.812</ele><time>2012-11-22T18:02:17Z</time></trkpt><trkpt lat="42.638759" lon="0.001255"><ele>1731.325</ele><time>2012-11-22T18:02:57Z</time></trkpt><trkpt lat="42.638759" lon="0.001255"><ele>1731.352</ele><time>2012-11-22T18:03:37Z</time></trkpt><trkpt lat="42.638518" lon="0.001125"><ele>1724.367</ele><time>2012-11-22T18:04:17Z</time></trkpt><trkpt lat="42.638518" lon="0.001125"><ele>1724.392</ele><time>2012-11-22T18:04:57Z</time></trkpt><trkpt lat="42.638447" lon="0.000652"><ele>1721.811</ele><time>2012-11-22T18:05:37Z</time></trkpt><trkpt lat="42.638447" lon="0.000652"><ele>1721.812</ele><time>2012-11-22T18:06:17Z</time></trkpt><trkpt lat="42.638304" lon="0.000104"><ele>1722.286</ele><time>2012-11-22T18:06:57Z</time></trkpt><trkpt lat="42.638304" lon="0.000104"><ele>1722.260</ele><time>2012-11-22T18:07:37Z</time></trkpt><trkpt lat="42.638105" lon="0.000246"><ele>1704.126</ele><time>2012-11-22T18:08:17Z</time></trkpt><trkpt lat="42.638105" lon="0.000246"><ele>1704.107</ele><time>2012-11-22T18:08:57Z</time></trkpt><trkpt lat="42.638049" lon="-0.000469"><ele>1697.841</ele><time>2012-11-22T18:09:37Z</time></trkpt><trkpt lat="42.638049" lon="-0.000469"><ele>1697.874</ele><time>2012-11-22T18:10:17Z</time></trkpt><trkpt lat="42.637594" lon="-0.002416"><ele>1679.331</ele><time>2012-11-22T18:10:57Z</time></trkpt><trkpt lat="42.637594" lon="-0.002416"><ele>1679.386</ele><time>2012-11-22T18:11:37Z</time></trkpt><trkpt lat="42.637560" lon="-0.002887"><ele>1680.681</ele><time>2012-11-22T18:12:17Z</time></trkpt><trkpt lat="42.637560" lon="-0.002887"><ele>1680.680</ele><time>2012-11-22T18:12:57Z</time></trkpt><trkpt lat="42.637325" lon="-0.003191"><ele>1672.771</ele><time>2012-11-22T18:13:37Z</time></trkpt><trkpt lat="42.637325" lon="-0.003191"><ele>1672.759</ele><time>2012-11-22T18:14:17Z</time></trkpt><trkpt lat="42.637049" lon="-0.005034"><ele>1670.703</ele><time>2012-11-22T18:14:57Z</time></trkpt><trkpt lat="42.637049" lon="-0.005034"><ele>1670.723</ele><time>2012-11-22T18:15:37Z</time></trkpt><trkpt lat="42.636867" lon="-0.005406"><ele>1670.707</ele><time>2012-11-22T18:16:17Z</time></trkpt><trkpt lat="42.636867" lon="-0.005406"><ele>1670.728</ele><time>2012-11-22T18:16:57Z</time></trkpt><trkpt lat="42.636564" lon="-0.006796"><ele>1667.451</ele><time>2012-11-22T18:17:37Z</time></trkpt><trkpt lat="42.636564" lon="-0.006796"><ele>1667.418</ele><time>2012-11-22T18:18:17Z</time></trkpt><trkpt lat="42.636221" lon="-0.008194"><ele>1664.283</ele><time>2012-11-22T18:18:57Z</time></trkpt><trkpt lat="42.636221" lon="-0.008194"><ele>1664.228</ele><time>2012-11-22T18:19:37Z</time></trkpt><trkpt lat="42.635115" lon="-0.011274"><ele>1655.637</ele><time>2012-11-22T18:20:17Z</time></trkpt><trkpt lat="42.635115" lon="-0.011274"><ele>1655.648</ele><time>2012-11-22T18:20:57Z</time></trkpt><trkpt lat="42.635139" lon="-0.012188"><ele>1658.062</ele><time>2012-11-22T18:21:37Z</time></trkpt><trkpt lat="42.635139" lon="-0.012188"><ele>1658.083</ele><time>2012-11-22T18:22:17Z</time></trkpt><trkpt lat="42.635055" lon="-0.012856"><ele>1656.911</ele><time>2012-11-22T18:22:57Z</time></trkpt><trkpt lat="42.635055" lon="-0.012856"><ele>1656.907</ele><time>2012-11-22T18:23:37Z</time></trkpt><trkpt lat="42.635142" lon="-0.013196"><ele>1660.999</ele><time>2012-11-22T18:24:17Z</time></trkpt><trkpt lat="42.635142" lon="-0.013196"><ele>1660.912</ele><time>2012-11-22T18:24:57Z</time></trkpt><trkpt lat="42.635071" lon="-0.013491"><ele>1659.369</ele><time>2012-11-22T18:25:37Z</time></trkpt><trkpt lat="42.635071" lon="-0.013491"><ele>1659.394</ele><time>2012-11-22T18:26:17Z</time></trkpt><trkpt lat="42.635266" lon="-0.014086"><ele>1665.079</ele><time>2012-11-22T18:26:57Z</time></trkpt><trkpt lat="42.635266" lon="-0.014086"><ele>1665.098</ele><time>2012-11-22T18:27:37Z</time></trkpt><trkpt lat="42.635401" lon="-0.015222"><ele>1668.119</ele><time>2012-11-22T18:28:17Z</time></trkpt><trkpt lat="42.635401" lon="-0.015222"><ele>1668.187</ele><time>2012-11-22T18:28:57Z</time></trkpt><trkpt lat="42.635365" lon="-0.016250"><ele>1665.742</ele><time>2012-11-22T18:29:37Z</time></trkpt><trkpt lat="42.635365" lon="-0.016250"><ele>1665.726</ele><time>2012-11-22T18:30:17Z</time></trkpt><trkpt lat="42.635420" lon="-0.017820"><ele>1653.807</ele><time>2012-11-22T18:30:57Z</time></trkpt><trkpt lat="42.635420" lon="-0.017820"><ele>1653.841</ele><time>2012-11-22T18:31:37Z</time></trkpt><trkpt lat="42.635527" lon="-0.018413"><ele>1652.214</ele><time>2012-11-22T18:32:17Z</time></trkpt><trkpt lat="42.635527" lon="-0.018413"><ele>1652.291</ele><time>2012-11-22T18:32:57Z</time></trkpt><trkpt lat="42.635558" lon="-0.019548"><ele>1651.266</ele><time>2012-11-22T18:33:37Z</time></trkpt><trkpt lat="42.635558" lon="-0.019548"><ele>1651.291</ele><time>2012-11-22T18:34:17Z</time></trkpt><trkpt lat="42.635914" lon="-0.020136"><ele>1651.260</ele><time>2012-11-22T18:34:57Z</time></trkpt><trkpt lat="42.635914" lon="-0.020136"><ele>1651.231</ele><time>2012-11-22T18:35:37Z</time></trkpt><trkpt lat="42.636073" lon="-0.020741"><ele>1645.435</ele><time>2012-11-22T18:36:17Z</time></trkpt><trkpt lat="42.636073" lon="-0.020741"><ele>1645.486</ele><time>2012-11-22T18:36:57Z</time></trkpt><trkpt lat="42.636553" lon="-0.022200"><ele>1637.014</ele><time>2012-11-22T18:37:37Z</time></trkpt><trkpt lat="42.636553" lon="-0.022200"><ele>1637.007</ele><time>2012-11-22T18:38:17Z</time></trkpt><trkpt lat="42.636639" lon="-0.023469"><ele>1623.816</ele><time>2012-11-22T18:38:57Z</time></trkpt><trkpt lat="42.636639" lon="-0.023469"><ele>1623.859</ele><time>2012-11-22T18:39:37Z</time></trkpt><trkpt lat="42.636909" lon="-0.024812"><ele>1618.266</ele><time>2012-11-22T18:40:17Z</time></trkpt><trkpt lat="42.636909" lon="-0.024812"><ele>1618.251</ele><time>2012-11-22T18:40:57Z</time></trkpt><trkpt lat="42.636545" lon="-0.024775"><ele>1603.216</ele><time>2012-11-22T18:41:37Z</time></trkpt><trkpt lat="42.636545" lon="-0.024775"><ele>1603.285</ele><time>2012-11-22T18:42:17Z</time></trkpt><trkpt lat="42.636394" lon="-0.023847"><ele>1606.026</ele><time>2012-11-22T18:42:57Z</time></trkpt><trkpt lat="42.636394" lon="-0.023847"><ele>1606.033</ele><time>2012-11-22T18:43:37Z</time></trkpt><trkpt lat="42.635553" lon="-0.022910"><ele>1599.923</ele><time>2012-11-22T18:44:17Z</time></trkpt><trkpt lat="42.635553" lon="-0.022910"><ele>1599.915</ele><time>2012-11-22T18:44:57Z</time></trkpt><trkpt lat="42.635235" lon="-0.023378"><ele>1589.207</ele><time>2012-11-22T18:45:37Z</time></trkpt><trkpt lat="42.635235" lon="-0.023378"><ele>1589.226</ele><time>2012-11-22T18:46:17Z</time></trkpt><trkpt lat="42.635490" lon="-0.023551"><ele>1592.489</ele><time>2012-11-22T18:46:57Z</time></trkpt><trkpt lat="42.635490" lon="-0.023551"><ele>1592.466</ele><time>2012-11-22T18:47:37Z</time></trkpt><trkpt lat="42.635760" lon="-0.024187"><ele>1589.111</ele><time>2012-11-22T18:48:17Z</time></trkpt><trkpt lat="42.635760" lon="-0.024187"><ele>1589.186</ele><time>2012-11-22T18:48:57Z</time></trkpt><trkpt lat="42.635692" lon="-0.024458"><ele>1584.485</ele><time>2012-11-22T18:49:37Z</time></trkpt><trkpt lat="42.635692" lon="-0.024458"><ele>1584.446</ele><time>2012-11-22T18:50:17Z</time></trkpt><trkpt lat="42.636228" lon="-0.025974"><ele>1575.922</ele><time>2012-11-22T18:50:57Z</time></trkpt><trkpt lat="42.636228" lon="-0.025974"><ele>1575.962</ele><time>2012-11-22T18:51:37Z</time></trkpt><trkpt lat="42.635523" lon="-0.026666"><ele>1543.408</ele><time>2012-11-22T18:52:17Z</time></trkpt><trkpt lat="42.635523" lon="-0.026666"><ele>1543.407</ele><time>2012-11-22T18:52:57Z</time></trkpt><trkpt lat="42.635558" lon="-0.027549"><ele>1532.425</ele><time>2012-11-22T18:53:37Z</time></trkpt><trkpt lat="42.635558" lon="-0.027549"><ele>1532.498</ele><time>2012-11-22T18:54:17Z</time></trkpt><trkpt lat="42.636004" lon="-0.028780"><ele>1496.945</ele><time>2012-11-22T18:54:57Z</time></trkpt><trkpt lat="42.636004" lon="-0.028780"><ele>1496.990</ele><time>2012-11-22T18:55:37Z</time></trkpt><trkpt lat="42.636609" lon="-0.028796"><ele>1523.625</ele><time>2012-11-22T18:56:17Z</time></trkpt><trkpt lat="42.636609" lon="-0.028796"><ele>1523.674</ele><time>2012-11-22T18:56:57Z</time></trkpt><trkpt lat="42.637417" lon="-0.028274"><ele>1536.175</ele><time>2012-11-22T18:57:37Z</time></trkpt><trkpt lat="42.637417" lon="-0.028274"><ele>1536.158</ele><time>2012-11-22T18:58:17Z</time></trkpt><trkpt lat="42.638476" lon="-0.029225"><ele>1499.252</ele><time>2012-11-22T18:58:57Z</time></trkpt><trkpt lat="42.638476" lon="-0.029225"><ele>1499.217</ele><time>2012-11-22T18:59:37Z</time></trkpt><trkpt lat="42.638411" lon="-0.029518"><ele>1489.107</ele><time>2012-11-22T19:00:17Z</time></trkpt><trkpt lat="42.638411" lon="-0.029518"><ele>1489.148</ele><time>2012-11-22T19:00:57Z</time></trkpt><trkpt lat="42.637658" lon="-0.029081"><ele>1486.621</ele><time>2012-11-22T19:01:37Z</time></trkpt><trkpt lat="42.637658" lon="-0.029081"><ele>1486.618</ele><time>2012-11-22T19:02:17Z</time></trkpt><trkpt lat="42.638482" lon="-0.030324"><ele>1460.063</ele><time>2012-11-22T19:02:57Z</time></trkpt><trkpt lat="42.638482" lon="-0.030324"><ele>1460.058</ele><time>2012-11-22T19:03:37Z</time></trkpt><trkpt lat="42.637647" lon="-0.029869"><ele>1465.027</ele><time>2012-11-22T19:04:17Z</time></trkpt><trkpt lat="42.637647" lon="-0.029869"><ele>1465.038</ele><time>2012-11-22T19:04:57Z</time></trkpt><trkpt lat="42.638147" lon="-0.030836"><ele>1449.699</ele><time>2012-11-22T19:05:37Z</time></trkpt><trkpt lat="42.638147" lon="-0.030836"><ele>1449.607</ele><time>2012-11-22T19:06:17Z</time></trkpt><trkpt lat="42.638652" lon="-0.030595"><ele>1446.627</ele><time>2012-11-22T19:06:57Z</time></trkpt><trkpt lat="42.638652" lon="-0.030595"><ele>1446.607</ele><time>2012-11-22T19:07:37Z</time></trkpt><trkpt lat="42.638843" lon="-0.031116"><ele>1437.012</ele><time>2012-11-22T19:08:17Z</time></trkpt><trkpt lat="42.638843" lon="-0.031116"><ele>1437.055</ele><time>2012-11-22T19:08:57Z</time></trkpt><trkpt lat="42.639098" lon="-0.031714"><ele>1423.162</ele><time>2012-11-22T19:09:37Z</time></trkpt><trkpt lat="42.639098" lon="-0.031714"><ele>1423.127</ele><time>2012-11-22T19:10:17Z</time></trkpt><trkpt lat="42.639421" lon="-0.032236"><ele>1416.492</ele><time>2012-11-22T19:10:57Z</time></trkpt><trkpt lat="42.639421" lon="-0.032236"><ele>1416.481</ele><time>2012-11-22T19:11:37Z</time></trkpt><trkpt lat="42.639655" lon="-0.034072"><ele>1397.192</ele><time>2012-11-22T19:12:17Z</time></trkpt><trkpt lat="42.639655" lon="-0.034072"><ele>1397.146</ele><time>2012-11-22T19:12:57Z</time></trkpt><trkpt lat="42.639947" lon="-0.034453"><ele>1402.188</ele><time>2012-11-22T19:13:37Z</time></trkpt><trkpt lat="42.639947" lon="-0.034453"><ele>1402.116</ele><time>2012-11-22T19:14:17Z</time></trkpt><trkpt lat="42.640641" lon="-0.034811"><ele>1402.207</ele><time>2012-11-22T19:14:57Z</time></trkpt><trkpt lat="42.640641" lon="-0.034811"><ele>1402.267</ele><time>2012-11-22T19:15:37Z</time></trkpt><trkpt lat="42.640623" lon="-0.035648"><ele>1394.670</ele><time>2012-11-22T19:16:17Z</time></trkpt><trkpt lat="42.640623" lon="-0.035648"><ele>1394.627</ele><time>2012-11-22T19:16:57Z</time></trkpt><trkpt lat="42.640386" lon="-0.035212"><ele>1388.762</ele><time>2012-11-22T19:17:37Z</time></trkpt><trkpt lat="42.640386" lon="-0.035212"><ele>1388.787</ele><time>2012-11-22T19:18:17Z</time></trkpt><trkpt lat="42.640278" lon="-0.035616"><ele>1385.686</ele><time>2012-11-22T19:18:57Z</time></trkpt><trkpt lat="42.640278" lon="-0.035616"><ele>1385.657</ele><time>2012-11-22T19:19:37Z</time></trkpt><trkpt lat="42.640459" lon="-0.036213"><ele>1378.127</ele><time>2012-11-22T19:20:17Z</time></trkpt><trkpt lat="42.640459" lon="-0.036213"><ele>1378.168</ele><time>2012-11-22T19:20:57Z</time></trkpt><trkpt lat="42.642423" lon="-0.039486"><ele>1361.814</ele><time>2012-11-22T19:21:37Z</time></trkpt><trkpt lat="42.642423" lon="-0.039486"><ele>1361.807</ele><time>2012-11-22T19:22:17Z</time></trkpt><trkpt lat="42.643091" lon="-0.040741"><ele>1353.085</ele><time>2012-11-22T19:22:57Z</time></trkpt><trkpt lat="42.643091" lon="-0.040741"><ele>1353.028</ele><time>2012-11-22T19:23:37Z</time></trkpt><trkpt lat="42.643995" lon="-0.041582"><ele>1349.285</ele><time>2012-11-22T19:24:17Z</time></trkpt><trkpt lat="42.643995" lon="-0.041582"><ele>1349.250</ele><time>2012-11-22T19:24:57Z</time></trkpt><trkpt lat="42.644512" lon="-0.041946"><ele>1347.735</ele><time>2012-11-22T19:25:37Z</time></trkpt><trkpt lat="42.644512" lon="-0.041946"><ele>1347.794</ele><time>2012-11-22T19:26:17Z</time></trkpt><trkpt lat="42.644793" lon="-0.042412"><ele>1347.075</ele><time>2012-11-22T19:26:57Z</time></trkpt><trkpt lat="42.644793" lon="-0.042412"><ele>1347.027</ele><time>2012-11-22T19:27:37Z</time></trkpt><trkpt lat="42.645056" lon="-0.042876"><ele>1345.968</ele><time>2012-11-22T19:28:17Z</time></trkpt><trkpt lat="42.645056" lon="-0.042876"><ele>1345.914</ele><time>2012-11-22T19:28:57Z</time></trkpt><trkpt lat="42.645331" lon="-0.044251"><ele>1343.807</ele><time>2012-11-22T19:29:37Z</time></trkpt><trkpt lat="42.645331" lon="-0.044251"><ele>1343.835</ele><time>2012-11-22T19:30:17Z</time></trkpt><trkpt lat="42.646683" lon="-0.045268"><ele>1339.138</ele><time>2012-11-22T19:30:57Z</time></trkpt><trkpt lat="42.646683" lon="-0.045268"><ele>1339.135</ele><time>2012-11-22T19:31:37Z</time></trkpt><trkpt lat="42.647138" lon="-0.046353"><ele>1336.670</ele><time>2012-11-22T19:32:17Z</time></trkpt><trkpt lat="42.647138" lon="-0.046353"><ele>1336.665</ele><time>2012-11-22T19:32:57Z</time></trkpt><trkpt lat="42.647416" lon="-0.047578"><ele>1333.574</ele><time>2012-11-22T19:33:37Z</time></trkpt><trkpt lat="42.647416" lon="-0.047578"><ele>1333.535</ele><time>2012-11-22T19:34:17Z</time></trkpt><trkpt lat="42.647894" lon="-0.048936"><ele>1330.315</ele><time>2012-11-22T19:34:57Z</time></trkpt><trkpt lat="42.647894" lon="-0.048936"><ele>1330.365</ele><time>2012-11-22T19:35:37Z</time></trkpt><trkpt lat="42.648376" lon="-0.049777"><ele>1329.111</ele><time>2012-11-22T19:36:17Z</time></trkpt><trkpt lat="42.648376" lon="-0.049777"><ele>1329.107</ele><time>2012-11-22T19:36:57Z</time></trkpt><trkpt lat="42.648738" lon="-0.051014"><ele>1327.574</ele><time>2012-11-22T19:37:37Z</time></trkpt><trkpt lat="42.648738" lon="-0.051014"><ele>1327.567</ele><time>2012-11-22T19:38:17Z</time></trkpt><trkpt lat="42.648609" lon="-0.052688"><ele>1325.074</ele><time>2012-11-22T19:38:57Z</time></trkpt><trkpt lat="42.648609" lon="-0.052688"><ele>1325.059</ele><time>2012-11-22T19:39:37Z</time></trkpt><trkpt lat="42.648780" lon="-0.053568"><ele>1328.544</ele><time>2012-11-22T19:40:17Z</time></trkpt><trkpt lat="42.648780" lon="-0.053568"><ele>1328.593</ele><time>2012-11-22T19:40:57Z</time></trkpt><trkpt lat="42.648772" lon="-0.054512"><ele>1321.464</ele><time>2012-11-22T19:41:37Z</time></trkpt><trkpt lat="42.648772" lon="-0.054512"><ele>1321.465</ele><time>2012-11-22T19:42:17Z</time></trkpt><trkpt lat="42.648910" lon="-0.055461"><ele>1320.468</ele><time>2012-11-22T19:42:57Z</time></trkpt><trkpt lat="42.648910" lon="-0.055461"><ele>1320.414</ele><time>2012-11-22T19:43:37Z</time></trkpt><trkpt lat="42.649048" lon="-0.056595"><ele>1319.407</ele><time>2012-11-22T19:44:17Z</time></trkpt><trkpt lat="42.649048" lon="-0.056595"><ele>1319.429</ele><time>2012-11-22T19:44:57Z</time></trkpt><trkpt lat="42.649227" lon="-0.057365"><ele>1318.272</ele><time>2012-11-22T19:45:37Z</time></trkpt></trkseg></trk></gpx>